STARLINK-2022           
1 47643U 21012Z   23321.94765386  .00007336  00000+0  51079-3 0  9992
2 47643  53.0532 234.8345 0001483  85.9700 274.1458 15.06408077153242
